{
  "norad_id": 64493,
  "name": "STARLINK-34462",
  "history": [
    {
      "epoch": "2026-03-28T20:36:29.520864",
      "apogee_km": 476.1193265483116,
      "perigee_km": 474.21397106786844,
      "latitude_deg": -14.089754627512834,
      "longitude_deg": -8.26719903992489,
      "semi_major_axis_km": 6853.30364880809,
      "eccentricity": 0.00013901,
      "inclination_deg": 53.1604,
      "raan_deg": 27.7289,
      "arg_perigee_deg": 90.2805,
      "mean_anomaly_deg": 269.8355,
      "mean_motion_rev_day": 15.30216217
    },
    {
      "epoch": "2026-03-29T02:52:42.512736",
      "apogee_km": 476.05215643850624,
      "perigee_km": 474.35938077466017,
      "latitude_deg": -37.019646432362336,
      "longitude_deg": 16.813903040252626,
      "semi_major_axis_km": 6853.342768606583,
      "eccentricity": 0.0001235,
      "inclination_deg": 53.16,
      "raan_deg": 26.5149,
      "arg_perigee_deg": 89.2854,
      "mean_anomaly_deg": 270.8288,
      "mean_motion_rev_day": 15.30203115
    }
  ]
}